[{"OBJECT_NAME":"NINGXIA-1 3","OBJECT_ID":"2019-076C","EPOCH":"2026-03-09T23:01:21.931104","MEAN_MOTION":14.02037323,"ECCENTRICITY":0.00099226,"INCLINATION":44.9997,"RA_OF_ASC_NODE":261.8703,"ARG_OF_PERICENTER":34.5677,"MEAN_ANOMALY":325.58,"EPHEMERIS_TYPE":0,"CLASSIFICATION_TYPE":"U","NORAD_CAT_ID":44781,"ELEMENT_SET_NO":999,"REV_AT_EPOCH":32393,"BSTAR":9.6124184e-5,"MEAN_MOTION_DOT":1.8e-7,"MEAN_MOTION_DDOT":0},{"OBJECT_NAME":"FENGYUN 1C DEB","OBJECT_ID":"1999-025DKM","EPOCH":"2026-03-07T21:52:16.759776","MEAN_MOTION":14.21011717,"ECCENTRICITY":0.01529293,"INCLINATION":98.6249,"RA_OF_ASC_NODE":59.1484,"ARG_OF_PERICENTER":147.1863,"MEAN_ANOMALY":213.8925,"EPHEMERIS_TYPE":0,"CLASSIFICATION_TYPE":"U","NORAD_CAT_ID":35109,"ELEMENT_SET_NO":999,"REV_AT_EPOCH":65369,"BSTAR":0.00024329879,"MEAN_MOTION_DOT":5.51e-6,"MEAN_MOTION_DDOT":0}]
